ONEWEB-0474             
1 51654U 22012AJ  23312.29658122  .00000675  00000+0  18960-2 0  9997
2 51654  87.8999 225.2961 0001672  60.3260 299.8033 13.10371333 84633
ONEWEB-0475             
1 51655U 22012AK  23312.58916003  .00000028  00000+0  39960-4 0  9992
2 51655  87.9246 195.0245 0001771  59.3998 300.7308 13.17648046 88372
ONEWEB-0490             
1 54113U 22138A   23312.55801513  .00000874  00000+0  21516-2 0  9994
2 54113  87.9174 134.3893 0001487  76.8263 283.3036 13.19720448 51319
ONEWEB-0492             
1 54114U 22138B   23312.58328541  .00000098  00000+0  21252-3 0  9999
2 54114  87.9173 134.3794 0001263  77.1521 282.9752 13.19725942 51327
ONEWEB-0495             
1 54115U 22138C   23312.56116583  .00000200  00000+0  46610-3 0  9999
2 54115  87.9174 134.3953 0001504  66.0102 294.1188 13.19723178 51301
ONEWEB-0497             
1 54116U 22138D   23312.57381047  .00000044  00000+0  77192-4 0  9996
2 54116  87.9177 134.3865 0001426  82.5969 277.5325 13.19725534 51298
ONEWEB-0499             
1 54117U 22138E   23312.55642801  .00000126  00000+0  28128-3 0  9998
2 54117  87.9172 134.3863 0002085  76.5306 283.6059 13.19723296 51309
ONEWEB-0500             
1 54118U 22138F   23312.55959754  .00001915  00000+0  47508-2 0  9996
2 54118  87.9178 134.3836 0001835  81.8242 278.3099 13.19718822 51311
